[
    {
        "Altitude(m)": 605459.0608663581,
        "Argument of Periapsis(deg)": 0.0,
        "Eccentricity": 0.0,
        "Inclination(deg)": 60.0,
        "Latitude(deg)": 27.98831812543976,
        "Longitude(deg)": 132.79861535983076,
        "Mean Anomaly(deg)": 32.72730000000001,
        "RAAN(deg)": 215.0,
        "Satellite Name": "Test1 948",
        "Satellite Number": 948,
        "Semi-Major Axis(m)": 6980739.136638005,
        "Time(s)": 0
    },
    {
        "Altitude(m)": 605535.8521555235,
        "Argument of Periapsis(deg)": 0.00010418945913296404,
        "Eccentricity": 0.0,
        "Inclination(deg)": 60.0,
        "Latitude(deg)": 28.50144726100336,
        "Longitude(deg)": 133.15556144976844,
        "Mean Anomaly(deg)": 33.34740614546182,
        "RAAN(deg)": 214.99957995086024,
        "Satellite Name": "Test1 948",
        "Satellite Number": 948,
        "Semi-Major Axis(m)": 6980739.136638005,
        "Time(s)": 10
    }
]